GLOBALSTAR M067 [+]     
1 32263U 07048A   24046.37969507 -.00000068  00000+0  21954-3 0  9995
2 32263  51.9749  23.2556 0001032  32.4598 132.7181 12.40638153748930
GLOBALSTAR M070 [+]     
1 32264U 07048B   24046.53856944 -.00000056  00000+0  26413-3 0  9996
2 32264  51.9737 174.0378 0001234 108.7243 331.5869 12.62286668752080
GLOBALSTAR M066 [+]     
1 32265U 07048C   24046.26489885 -.00000088  00000+0  88065-4 0  9990
2 32265  51.9690  36.8813 0000481 286.8158 177.8343 12.62260042754318
GLOBALSTAR M068 [-]     
1 32266U 07048D   24046.09945400  .00000002  00000+0  58686-3 0  9992
2 32266  51.9914 350.0554 0001012 117.5386 255.8499 12.62779887755890
GLOBALSTAR M079 [+]     
1 37188U 10054A   24046.56589155 -.00000076  00000+0  15585-3 0  9997
2 37188  52.0023 184.1827 0000722  95.5606 344.1667 12.62266623614877
GLOBALSTAR M074 [+]     
1 37189U 10054B   24046.59227729 -.00000081  00000+0  12583-3 0  9998
2 37189  51.9998 183.5010 0000955 104.5483 334.7609 12.62265337615486
GLOBALSTAR M077 [+]     
1 37191U 10054D   24046.44755668 -.00000077  00000+0  15104-3 0  9990
2 37191  52.0067 140.7862 0000847 112.3261 327.9757 12.62269542615557
